0 FENGYUN 1C DEB
1 37455U 99025EHZ 13281.58714725  .00005317  00000-0  90318-3 0  1850
2 37455 099.3853 200.0573 0267451 030.7219 331.0762 14.48780348195179
0 FENGYUN 1C DEB
1 37455U 99025EHZ 13282.55396973  .00005652  00000-0  94641-3 0  1865
2 37455 099.3811 201.1370 0271215 027.8365 333.8135 14.48798911195317
0 FENGYUN 1C DEB
1 37455U 99025EHZ 13284.55667280  .00005968  00000-0  10138-2 0  1878
2 37455 099.3787 203.3602 0266617 022.1119 339.3051 14.48828999195606
0 FENGYUN 1C DEB
1 37455U 99025EHZ 13287.59517350  .00006398  00000-0  10939-2 0  1885
2 37455 099.3861 206.7364 0264188 013.4770 347.4807 14.48875047196042
0 FENGYUN 1C DEB
1 37455U 99025EHZ 13288.00948151  .00006851  00000-0  11612-2 0  1893
2 37455 099.3667 207.1914 0266344 011.1420 349.7538 14.48892262196106
0 FENGYUN 1C DEB
1 37455U 99025EHZ 13290.01203128  .00008396  00000-0  14077-2 0  1901
2 37455 099.3811 209.4419 0268504 006.1301 354.6104 14.48948600196397
